1 43466U 98067NP  19147.06562214  .00010433  00000-0  10777-3 0  9997
2 43466  51.6373  89.2078 0002059  63.9626 296.1581 15.65407551 59377